STARLINK-5739           
1 55571U 23020C   26068.14508326  .00000075  00000+0  20626-4 0  9992
2 55571  43.0046   7.9200 0000829 285.7649  74.3102 15.02532576168839
STARLING 4              
1 57386U 23100A   26066.02836485 -.00000009  00000+0  55676-5 0  9994
2 57386  99.5115  59.9711 0007803  83.0949 277.1159 15.06148396144525
